#aV2022  3 29  0  0  0.00000000     288 DD+AD WGS84 FIT  NGA
## 2203 172800.00000000   300.00000000 59667 0.0000000000000
+   32     1  2  3  4  5  6  7  8  9 10 11 12 13 14 15 16 17
+         18 19 20 21 22 23 24 25 26 27 28 29 30 31 32  0  0
+          0  0  0  0  0  0  0  0  0  0  0  0  0  0  0  0  0
+          0  0  0  0  0  0  0  0  0  0  0  0  0  0  0  0  0
+          0  0  0  0  0  0  0  0  0  0  0  0  0  0  0  0  0
++         2  2  2  2  2  2  2  2  2  2  2  2  2  2  2  2  2
++         2  2  2  2  2  2  2  2  2  2  2  2  2  2  2  0  0
++         0  0  0  0  0  0  0  0  0  0  0  0  0  0  0  0  0
++         0  0  0  0  0  0  0  0  0  0  0  0  0  0  0  0  0
++         0  0  0  0  0  0  0  0  0  0  0  0  0  0  0  0  0
%c cc cc ccc ccc cccc cccc cccc cccc ccccc ccccc ccccc ccccc
%c cc cc ccc ccc cccc cccc cccc cccc ccccc ccccc ccccc ccccc
%f  0.0000000  0.000000000  0.00000000000  0.000000000000000
%f  0.0000000  0.000000000  0.00000000000  0.000000000000000
%i    0    0    0    0      0      0      0      0         0
%i    0    0    0    0      0      0      0      0         0
/*      NGA, ST. LOUIS,MO.                                  
/*   EPHEMERIS COMPUTED FROM 2 DAYS OF DATA                 
/*   EPOCHA v7 SMOOTHER                                     
/*   G2139 IERS2010 SATIGS SATAPC                           
*  2022  3 29  1 30  0.00000000
P  1  13501.024870  13286.526617 -19052.560186    397.822469                    
V  1 -23407.649384   -440.990957 -16812.702966     -0.089249                    
P  2  10015.615115 -14583.224257  20511.078731   -652.728959                    
V  2  24555.876517   -119.798300 -12344.296857     -0.003325                    
P  3  13044.100472  23176.377189   1094.966476   -183.824831                    
V  3  -1375.518037   2429.476518 -31902.294313     -0.161321                    
P  4   5131.936590  16973.324331  19755.664427   -180.233445                    
V  4 -15115.878799  20064.924080 -13399.816004      0.028697                    
P  5  -2544.405470 -22761.504228  13158.423776    -76.335909                    
V  5  10641.813148  13520.646154  25284.607137     -0.013516                    
P  6  23653.653408  -6016.779711  10641.644345    247.328164                    
V  6  13265.796213   2244.183966 -28316.140321      0.131877                    
P  7  25198.351801   6221.892096   7146.539066    318.200247                    
V  7  -8555.741377   2099.927102  29495.011156      0.015983                    
P  8  -2772.420579  22608.001291 -13393.825588    -61.699557                    
V  8 -10849.232380  13409.267866  25287.279599     -0.015027                    
P  9  13883.226666   6601.763674  21593.314203   -347.115377                    
V  9 -14140.319016  23701.281556   1808.608051      0.022479                    
P 10 -16384.238617   -622.600550 -20810.826263   -361.381768                    
V 10 -11916.056444 -23856.474725   9741.135392     -0.120196                    
P 11  11151.870677 -13096.204200  20231.584638    -51.336484                    
V 11  25483.835055   3449.071575 -11824.007138      0.083865                    
P 12  -9197.910361 -24907.197425  -2300.083134   -191.975672                    
V 12   3244.146444   1396.545807 -31688.143729     -0.057656                    
P 13  11821.776625 -22428.524085  -7774.997069    284.724833                    
V 13   8146.798713  -5833.694939  29956.747475      0.064109                    
P 14  16917.431633   1746.574343 -20424.482467    -98.120593                    
V 14  10278.748684  23826.476348  10477.164167     -0.032641                    
P 15   -837.231385 -22706.516990 -13902.246029    -73.195551                    
V 15   9969.641644 -14311.500580  23784.934257      0.029377                    
P 16  -3344.000225  20510.721411  15990.897423   -485.874488                    
V 16  -9998.459133 -18563.270654  21808.713254     -0.041184                    
P 17  19366.914137  -9586.406871 -15048.892838    593.309124                    
V 17 -10204.078236  17078.109373 -23299.367859      0.048770                    
P 18 -24957.558991  -6173.207309   6875.137280    208.892812                    
V 18   8820.871894  -1767.927593  30309.131050     -0.090543                    
P 19  19925.953557 -14606.647056  -9746.164962    137.155303                    
V 19  -5811.134579  10752.734795 -28953.267837      0.049951                    
P 20   4340.379021 -17741.744654  19360.804748    516.091792                    
V 20  15776.402668  18891.017873  13538.721246     -0.001879                    
P 21   2646.933290  14795.530200 -21268.445399    159.913054                    
V 21 -28538.937697   1105.383096  -2057.736916      0.004029                    
P 22 -18676.742615  17512.700987  -6285.893795    234.743437                    
V 22   2829.853715  -8577.266314 -30524.544804      0.059220                    
P 23 -18518.219482 -11664.538315 -15126.941119    -10.652503                    
V 23  -7798.944062 -17570.686335  23013.693697     -0.030447                    
P 24  -9613.993474 -14662.070454 -20349.265159    263.294780                    
V 24  25122.469900  -1937.023281 -10217.142972     -0.042275                    
P 25 -17116.855311 -18087.448957   9335.660682    304.642458                    
V 25  -3526.279012 -11928.867209 -28418.740938      0.051056                    
P 26 -11300.022371  11281.203706  21106.545015    194.452094                    
V 26 -14490.469667 -22942.472465   4794.290437      0.029432                    
P 27 -11945.571290  23265.347853  -3360.311445    168.441878                    
V 27  -4466.519382   1982.421743  31908.241802      0.109848                    
P 28  12884.606352  -7489.421881 -21481.881706    374.749256                    
V 28  10967.361677  26284.593847  -2305.039278     -0.009346                    
P 29 -11809.456680  -8815.137829  22047.906917   -496.808131                    
V 29  16726.551915 -22519.393080   -101.002571     -0.043544                    
P 30  26639.990471    289.123655  -1666.210214   -521.118289                    
V 30   2000.144047   3485.524238  30947.851399     -0.018933                    
P 31 -22571.922884   7287.236606  12286.823336   -171.004072                    
V 31 -15474.487506  -3141.095297 -25832.928911     -0.016707                    
P 32 -18912.708763  12737.066687 -13318.956887    -94.063125                    
V 32   6987.232056 -15934.137729 -25085.242709     -0.076775                    
EOF
